[{"name": "Forum f\u00fcr Kreativit\u00e4t und Kommunikation e.V.", "short": "ffk", "data": {"street": "Markgrafenstra\u00dfe 3", "zip": "33602", "city": "Bielefeld", "number": "004"}}, {"name": "wirmachenbunt Engler L\u00f6we GbR", "short": "wmb", "data": {"street": "Fuhlsb\u00fcttlerstra\u00dfe 415a", "zip": "22309", "city": "Hamburg", "number": "005"}}, {"name": "Young Urban Performances", "short": "yup", "data": {"street": "Gro\u00dfe Gildewart 6-9", "zip": "49074", "city": "Osnabru\u0308ck", "number": "006"}}, {"name": "Jihae An", "short": "ji", "data": {"street": "Kirchenweg 22", "zip": "24143 ", "city": "Kiel", "number": "007"}}, {"name": "Netzwerk fu\u0308r Revolution\u00e4re Ungeduld", "short": "nru", "data": {"street": "Kirchenweg 22", "zip": "24143 ", "city": "Kiel", "number": "008"}}, {"name": "Muthesius Kunstchochschule", "short": "mkh", "data": {"street": "Legienstra\u00dfe 35", "zip": "24103", "city": "Kiel", "number": "009"}}, {"name": "Marius Eschk\u00f6tter", "short": "steasy", "data": {"street": "Westring 277", "zip": "24116", "city": "Kiel", "number": "010"}}, {"name": "Maren Zu\u0308nkler", "short": "maren", "data": {"street": "Paul-Fleming-Str. 10", "zip": "24114", "city": "Kiel", "number": "011"}}, {"name": "Franziska Nast", "short": "nast", "data": {"street": "", "zip": "-", "city": "Hamburg", "number": "012"}}]